ALOS-2                  
1 39766U 14029A   26088.19698603  .00001242  00000+0  17327-3 0  9994
2 39766  97.9187 186.5103 0001909 102.7133 257.4292 14.79445822639751
YAOGAN-29               
1 41038U 15069A   26088.15884789  .00000384  00000+0  53859-4 0  9999
2 41038  98.0121 116.6387 0000462 357.2368   2.8842 14.83014843558768
ASTRO-H (HITOMI)        
1 41337U 16012A   26088.06748885  .00003553  00000+0  20681-3 0  9993
2 41337  30.9988 231.4855 0009640 167.0223 193.0664 15.10124724555163
HXMT (HUIYAN)           
1 42758U 17034A   26087.99634416  .00005920  00000+0  29619-3 0  9991
2 42758  43.0136 269.3163 0031866 354.2354   5.8124 15.17702674485473
SAOCOM 1A               
1 43641U 18076A   26088.20354670  .00000464  00000+0  64811-4 0  9998
2 43641  97.8906 276.1007 0001434  86.2121 273.9256 14.82160056404256
H-2A R/B                
1 43682U 18084L   26088.20327037  .00027229  00000+0  62997-3 0  9999
2 43682  98.8708 309.7726 0023691 317.2037  42.7360 15.42169578408780
SAOCOM 1B               
1 46265U 20059A   26088.16727429  .00000318  00000+0  46531-4 0  9995
2 46265  97.8906 275.1628 0001529  86.3040 273.8348 14.82156410301633
CSS (TIANHE)            
1 48274U 21035A   26087.97092897  .00015046  00000+0  17362-3 0  9997
2 48274  41.4668  90.7542 0003972  51.5615 308.5580 15.61596075280629
COSMOS 2550             
1 48865U 21056A   26087.49272868 -.00000186  00000+0  18968-6 0  9997
2 48865  67.1421 344.0047 0008440 269.5686  90.4502 15.33828274266348
CZ-2C R/B               
1 52794U 22058K   26087.66300685  .00046065  00000+0  63634-3 0  9996
2 52794  50.1874 220.5877 0041540 282.1630  77.4689 15.55620973213089
CZ-2C R/B               
1 54039U 22132E   26088.09378715  .00049218  00000+0  52394-3 0  9994
2 54039  97.2957  92.0262 0017581  27.9377 332.2821 15.63668117193402
GSLV R/B                
1 54149U 22138AN  26088.17495220  .00003155  00000+0  27099-3 0  9996
2 54149  87.3861 159.8394 0024016  82.5349 277.8611 14.96897449186841
